API VERSION: 1.2
API SOURCE: NASA/JPL Horizons API



*******************************************************************************
Ephemeris / API_USER Fri Apr  3 11:29:10 2026 Pasadena, USA      / Horizons
*******************************************************************************
Target body name: Uranus (799)                    {source: ura184_merged}
Center body name: Earth (399)                     {source: DE441}
Center-site name: BODY CENTER
*******************************************************************************
Start time      : A.D. 2029-Jun-13 02:12:59.9999 TDB
Stop  time      : A.D. 2029-Jun-15 02:12:59.9999 TDB
Step-size       : 60 minutes
*******************************************************************************
Center geodetic : 0.0, 0.0, 0.0                   {E-lon(deg),Lat(deg),Alt(km)}
Center cylindric: 0.0, 0.0, 0.0                   {E-lon(deg),Dxy(km),Dz(km)}
Center radii    : 6378.137, 6378.137, 6356.752 km {Equator_a, b, pole_c}
Output units    : AU-D
Calendar mode   : Mixed Julian/Gregorian
Output type     : GEOMETRIC cartesian states
Output format   : 3 (position, velocity, LT, range, range-rate)
EOP file        : eop.260402.p260629
EOP coverage    : DATA-BASED 1962-JAN-20 TO 2026-APR-02. PREDICTS-> 2026-JUN-28
Reference frame : Ecliptic of J2000.0
*******************************************************************************
            JDTDB,            Calendar Date (TDB),                      X,                      Y,                      Z,                     VX,                     VY,                     VZ,                     LT,                     RG,                     RR,
**************************************************************************************************************************************************************************************************************************************************************************
$$SOE
2462300.592361110, A.D. 2029-Jun-13 02:12:59.9999,  5.443803122434274E+00,  1.951946520422034E+01, -4.973541341135633E-05, -2.057076258442982E-02,  3.363344782663754E-03,  5.180202951393051E-05,  1.170372151582871E-01,  2.026436562779766E+01, -2.286402326150825E-03,
2462300.634027777, A.D. 2029-Jun-13 03:12:59.9999,  5.442945972289970E+00,  1.951960509497027E+01, -4.757692912809889E-05, -2.057244282913107E-02,  3.351411041854185E-03,  5.180534106372607E-05,  1.170366636120714E-01,  2.026427013053074E+01, -2.297466277044133E-03,
2462300.675694443, A.D. 2029-Jun-13 04:12:59.9999,  5.442088752325053E+00,  1.951974448845945E+01, -4.541829140293040E-05, -2.057411396310679E-02,  3.339476265822866E-03,  5.180939070538774E-05,  1.170361094035049E-01,  2.026417417229206E+01, -2.308528968853754E-03,
2462300.717361110, A.D. 2029-Jun-13 05:12:59.9999,  5.441231462920453E+00,  1.951988338464464E+01, -4.325947003626558E-05, -2.057577592382145E-02,  3.327540449801467E-03,  5.181415070173958E-05,  1.170355525328918E-01,  2.026407775313431E+01, -2.319590390787371E-03,
2462300.759027777, A.D. 2029-Jun-13 06:12:59.9999,  5.440374104459621E+00,  1.952002178348243E+01, -4.110043610828414E-05, -2.057742865291757E-02,  3.315603589292784E-03,  5.181958755090517E-05,  1.170349930005390E-01,  2.026398087311061E+01, -2.330650532926031E-03,
2462300.800694443, A.D. 2029-Jun-13 07:12:59.9999,  5.439516677328339E+00,  1.952015968492919E+01, -3.894116220842787E-05, -2.057907209687186E-02,  3.303665680249241E-03,  5.182566254793155E-05,  1.170344308067554E-01,  2.026388353227447E+01, -2.341709386227250E-03,
2462300.842361110, A.D. 2029-Jun-13 08:12:59.9999,  5.438659181914512E+00,  1.952029708894117E+01, -3.678162263142943E-05, -2.058070620755635E-02,  3.291726719235235E-03,  5.183233240500143E-05,  1.170338659518524E-01,  2.026378573067977E+01, -2.352766942517996E-03,
2462300.884027777, A.D. 2029-Jun-13 09:12:59.9999,  5.437801618607929E+00,  1.952043399547448E+01, -3.462179356457554E-05, -2.058233094268620E-02,  3.279786703569986E-03,  5.183954992333397E-05,  1.170332984361429E-01,  2.026368746838071E+01, -2.363823194475881E-03,
2462300.925694443, A.D. 2029-Jun-13 10:12:59.9999,  5.436943987800010E+00,  1.952057040448513E+01, -3.246165322875212E-05, -2.058394626613825E-02,  3.267845631447879E-03,  5.184726470819472E-05,  1.170327282599415E-01,  2.026358874543177E+01, -2.374878135597194E-03,
2462300.967361110, A.D. 2029-Jun-13 11:12:59.9999,  5.436086289883552E+00,  1.952070631592908E+01, -3.030118200116145E-05, -2.058555214812782E-02,  3.255903502033791E-03,  5.185542391630932E-05,  1.170321554235646E-01,  2.026348956188769E+01, -2.385931760150923E-03,
2462301.009027777, A.D. 2029-Jun-13 12:12:59.9999,  5.435228525252459E+00,  1.952084172976228E+01, -2.814036248783690E-05, -2.058714856523598E-02,  3.243960315531500E-03,  5.186397302250010E-05,  1.170315799273294E-01,  2.026338991780344E+01, -2.396984063118537E-03,
2462301.050694443, A.D. 2029-Jun-13 13:12:59.9999,  5.434370694301480E+00,  1.952097664594071E+01, -2.597917960332940E-05, -2.058873550028529E-02,  3.232016073224113E-03,  5.187285658979189E-05,  1.170310017715546E-01,  2.026328981323418E+01, -2.408035040120081E-03,
2462301.092361110, A.D. 2029-Jun-13 14:12:59.9999,  5.433512797425955E+00,  1.952111106442042E+01, -2.381762056831683E-05, -2.059031294206888E-02,  3.220070777486315E-03,  5.188201902461485E-05,  1.170304209565596E-01,  2.026318924823524E+01, -2.419084687328126E-03,
2462301.134027777, A.D. 2029-Jun-13 15:12:59.9999,  5.432654835021572E+00,  1.952124498515759E+01, -2.165567491040091E-05, -2.059188088494485E-02,  3.208124431769399E-03,  5.189140529638546E-05,  1.170298374826651E-01,  2.026308822286209E+01, -2.430133001371900E-03,
2462301.175694443, A.D. 2029-Jun-13 16:12:59.9999,  5.431796807484149E+00,  1.952137840810854E+01, -1.949333443223261E-05, -2.059343932831577E-02,  3.196177040561042E-03,  5.190096159895556E-05,  1.170292513501921E-01,  2.026298673717035E+01, -2.441179979235087E-03,
2462301.217361110, A.D. 2029-Jun-13 17:12:59.9999,  5.430938715209431E+00,  1.952151133322985E+01, -1.733059313899742E-05, -2.059498827602015E-02,  3.184228609323094E-03,  5.191063593037294E-05,  1.170286625594625E-01,  2.026288479121575E+01, -2.452225618151358E-03,
2462301.259027777, A.D. 2029-Jun-13 18:12:59.9999,  5.430080558592927E+00,  1.952164376047830E+01, -1.516744715633828E-05, -2.059652773566999E-02,  3.172279144411721E-03,  5.192037856753639E-05,  1.170280711107988E-01,  2.026278238505414E+01, -2.463269915502642E-03,
2462301.300694443, A.D. 2029-Jun-13 19:12:59.9999,  5.429222338029757E+00,  1.952177568981096E+01, -1.300389463154435E-05, -2.059805771797355E-02,  3.160328652985383E-03,  5.193014241383302E-05,  1.170274770045242E-01,  2.026267951874146E+01, -2.474312868725335E-03,
2462301.342361110, A.D. 2029-Jun-13 20:12:59.9999,  5.428364053914545E+00,  1.952190712118523E+01, -1.083993561083379E-05, -2.059957823608671E-02,  3.148377142907079E-03,  5.193988320110028E-05,  1.170268802409626E-01,  2.026257619233378E+01, -2.485354475229917E-03,
2462301.384027777, A.D. 2029-Jun-13 21:12:59.9999,  5.427505706641322E+00,  1.952203805455883E+01, -8.675571925402090E-06, -2.060108930503761E-02,  3.136424622648010E-03,  5.194955953242856E-05,  1.170262808204381E-01,  2.026247240588726E+01, -2.496394732339010E-03,
2462301.425694443, A.D. 2029-Jun-13 22:12:59.9999,  5.426647296603469E+00,  1.952216848988988E+01, -6.510807082251605E-06, -2.060259094126814E-02,  3.124471101200299E-03,  5.195913275961470E-05,  1.170256787432761E-01,  2.026236815945820E+01, -2.507433637248169E-03,
2462301.467361110, A.D. 2029-Jun-13 23:12:59.9999,  5.425788824193650E+00,  1.952229842713683E+01, -4.345646131115087E-06, -2.060408316233104E-02,  3.112516588006472E-03,  5.196856669860255E-05,  1.170250740098021E-01,  2.026226345310298E+01, -2.518471187012352E-03,
2462301.509027777, A.D. 2029-Jun-14 00:12:59.9999,  5.424930289803783E+00,  1.952242786625857E+01, -2.180095599909648E-06, -2.060556598677352E-02,  3.100561092913100E-03,  5.197782719786060E-05,  1.170244666203427E-01,  2.026215828687814E+01, -2.529507378559118E-03,
2462301.550694443, A.D. 2029-Jun-14 01:12:59.9999,  5.424071693824989E+00,  1.952255680721441E+01, -1.416339512864505E-08, -2.060703943422610E-02,  3.088604626155152E-03,  5.198688158822807E-05,  1.170238565752251E-01,  2.026205266084034E+01, -2.540542208727205E-03,
2462301.592361110, A.D. 2029-Jun-14 02:12:59.9999,  5.423213036647543E+00,  1.952268524996407E+01,  2.152141229236050E-06, -2.060850352569954E-02,  3.076647198376246E-03,  5.199569805779515E-05,  1.170232438747773E-01,  2.026194657504637E+01, -2.551575674326194E-03,
2462301.634027777, A.D. 2029-Jun-14 03:12:59.9999,  5.422354318660808E+00,  1.952281319446775E+01,  4.318807699584321E-06, -2.060995828407371E-02,  3.064688820688067E-03,  5.200424501120284E-05,  1.170226285193281E-01,  2.026184002955315E+01, -2.562607772209726E-03,
2462301.675694443, A.D. 2029-Jun-14 04:12:59.9999,  5.421495540253146E+00,  1.952294064068610E+01,  6.485824123504671E-06, -2.061140373473985E-02,  3.052729504769722E-03,  5.201249048833879E-05,  1.170220105092069E-01,  2.026173302441772E+01, -2.573638499351093E-03,
2462301.717361110, A.D. 2029-Jun-14 05:12:59.9999,  5.420636701811791E+00,  1.952306758858029E+01,  8.653177265071415E-06, -2.061283990633403E-02,  3.040769263004728E-03,  5.202040173140145E-05,  1.170213898447440E-01,  2.026162555969728E+01, -2.584667852906805E-03,
2462301.759027777, A.D. 2029-Jun-14 06:12:59.9999,  5.419777803722709E+00,  1.952319403811201E+01,  1.082085249384532E-05, -2.061426683147510E-02,  3.028808108649922E-03,  5.202794499981672E-05,  1.170207665262702E-01,  2.026151763544909E+01, -2.595695830250383E-03,
2462301.800694443, A.D. 2029-Jun-14 07:12:59.9999,  5.418918846370409E+00,  1.952331998924353E+01,  1.298883375778021E-05, -2.061568454739885E-02,  3.016846056026663E-03,  5.203508573731616E-05,  1.170201405541170E-01,  2.026140925173057E+01, -2.606722428956652E-03,
